#aV2009  8 11  0  0   .00000000      96 DD+AD WGS84 FIT  NGA
## 1544 172800.00000000   900.00000000 55054  .0000000000000
+   31     1  2  3  4  6  7  8  9 10 11 12 13 14 15 16 17 18
+         19 20 21 22 23 24 25 26 27 28 29 30 31 32  0  0  0
+          0  0  0  0  0  0  0  0  0  0  0  0  0  0  0  0  0
+          0  0  0  0  0  0  0  0  0  0  0  0  0  0  0  0  0
+          0  0  0  0  0  0  0  0  0  0  0  0  0  0  0  0  0
++         0  0  0  0  0  0  0  0  0  0  0  0  0  0  0  0  0
++         0  0  0  0  0  0  0  0  0  0  0  0  0  0  0  0  0
++         0  0  0  0  0  0  0  0  0  0  0  0  0  0  0  0  0
++         0  0  0  0  0  0  0  0  0  0  0  0  0  0  0  0  0
++         0  0  0  0  0  0  0  0  0  0  0  0  0  0  0  0  0
%c cc cc ccc ccc cccc cccc cccc cccc ccccc ccccc ccccc ccccc
%c cc cc ccc ccc cccc cccc cccc cccc ccccc ccccc ccccc ccccc
%f  0.0000000  0.000000000  0.00000000000  0.000000000000000
%f  0.0000000  0.000000000  0.00000000000  0.000000000000000
%i    0    0    0    0      0      0      0      0         0
%i    0    0    0    0      0      0      0      0         0
/*      NGA, ST. LOUIS,MO.                                  
/*   EPHEMERIS COMPUTED FROM  3 DAYS OF DATA                
/* CCCCCCCCCCCCCCCCCCCCCCCCCCCCCCCCCCCCCCCCCCCCCCCCCCCCCCCCC
/* CCCCCCCCCCCCCCCCCCCCCCCCCCCCCCCCCCCCCCCCCCCCCCCCCCCCCCCCC
*  2009  8 11 14 45   .00000000                                                 
P  1  15158.862820    344.052517  21707.556412    -59.779541                    
V  1  -1875.041677  27733.278269    967.663487       .016996                    
P  2   6030.049355  19265.854976  17390.617955    164.739055                    
V  2 -19417.112775 -10784.432687  18176.329203       .022542                    
P  3  -2175.177966 -16909.017859 -20619.984695    432.314892                    
V  3  22366.373453 -12650.185988   8501.405191       .050753                    
P  4  -6336.045382  14452.203838  21198.872476   -214.953215                    
V  4 -22806.592098 -15109.611462   3824.841118      -.169144                    
P  6   3423.789159 -17878.181931 -19128.636537    216.212518                    
V  6  22653.981731 -10246.479951  13578.356811       .089306                    
P  7 -22378.302750  -3751.521620 -13941.941941     13.586307                    
V  7 -13421.373344 -11534.963398  24550.359424      -.006645                    
P  8 -14780.553070   6221.916279 -21319.846100   -216.173601                    
V  8 -20888.023125 -16751.092915   9115.706268      -.017740                    
P  9  21112.942106  15987.032009  -3095.430387     71.412098                    
V  9  -3788.898201    167.340306 -31755.581631       .020339                    
P 10   1930.756023  25553.294478  -6440.205014    -21.017163                    
V 10  -3863.700536   7693.050350  30453.811487      -.007906                    
P 11 -24050.648700 -11564.080951  -2104.773113    -14.616994                    
V 11   4013.490837  -3435.176395 -29709.347101      -.016615                    
P 12  12200.892079  13664.707591  19334.477927   -236.150169                    
V 12  -3203.601285  24180.463221 -14991.326531       .059613                    
P 13 -25069.689874   5383.832283   6826.720501    302.990434                    
V 13   7540.933282  -4846.649584  30915.658310       .006422                    
P 14  20235.310472 -14850.672176   8607.257953    -66.738100                    
V 14  10623.957780  -2530.924715 -29899.442350       .054544                    
P 15   9220.324771  12419.826363 -21570.899946   -313.694019                    
V 15 -24480.425667  12441.964906  -3232.080158      -.019166                    
P 16   2235.676390 -26320.446146   -655.676267     24.000434                    
V 16   2844.015663   -611.901387  32088.484725      -.037120                    
P 17 -20277.789964  15172.042703   7739.473730     76.607824                    
V 17 -10064.756304   1501.704299 -29780.034146       .026510                    
P 18  15426.976859  -7423.052192 -19968.963503      4.289274                    
V 18  -1361.029431  26069.569551 -10993.468837       .029664                    
P 19 -10950.155595 -11709.816267 -21160.955724     15.563035                    
V 19  24935.214252 -10272.425999  -6937.843527      -.015377                    
P 20 -13604.077514 -11686.036190  19482.691634     75.025668                    
V 20   2755.236346 -24948.367937 -12916.168019      -.009332                    
P 21  21616.609590   1309.312187 -15500.117994     -2.530865                    
V 21  15020.508841  13411.467079  21065.504155      -.022032                    
P 22  12068.178596 -19323.198866 -13421.438592    193.554620                    
V 22    868.915431  17607.705089 -24352.572428      -.008715                    
P 23 -19753.707602  -3911.072543  17430.220724    389.574533                    
V 23  19400.979389 -10620.413182  19261.909287      -.002665                    
P 24  22681.897177  12285.632328  -5609.419297    211.529429                    
V 24   3842.543483   7074.066302  30585.128949       .030060                    
P 25 -24154.563056  -8326.668162  -6541.918630    548.434542                    
V 25  -6402.330398  -6566.257869  30614.716128       .160690                    
P 26  25526.514299  -7449.091763  -4226.509320     64.575044                    
V 26  -3752.660328   2921.992726 -31532.032341      -.002515                    
P 27  19113.302916  16902.315635  -6709.145411     73.352045                    
V 27  -9282.129783  -2846.975453 -30516.350592       .031819                    
P 28 -12524.670651  17127.559911 -15339.580994    -26.182622                    
V 28     73.919972 -20498.176720 -22624.632373      -.000623                    
P 29  24589.187174  -3793.224500   9334.772250     47.715368                    
V 29  -9667.469440   7117.720625  28709.399549       .033287                    
P 30  15125.158993   1986.910749  21364.719371    167.939133                    
V 30  -1149.587309  28038.349083  -1689.669009       .028743                    
P 31   3725.946929 -15260.027323  21601.451171    -64.751124                    
V 31  22522.286492  14776.848324   6754.312902      -.002703                    
P 32  -8673.593103 -19139.813902  16793.309145    216.789569                    
V 32   4831.218494 -19959.281004 -20471.347918      -.065552                    
EOF
